QZS-6 (MICHIBIKI-6)     
1 62876U 25023A   26200.59946913 -.00000237  00000+0  00000+0 0  9998
2 62876   0.0123  40.1211 0001920  74.8779 128.6618  1.00274502  5277
ZHONGXING-10R           
1 63075U 25036A   26200.59551459 -.00000356  00000+0  00000+0 0  9993
2 63075   0.0257 166.9429 0004358 339.4728 115.8610  1.00270416  5288
TJS-15                  
1 63157U 25045A   26199.81210330 -.00000272  00000+0  00000+0 0  9993
2 63157   0.3094  85.6905 0003083 294.8019 302.8663  1.00272854  5079
TIANLIAN 2-04           
1 63361U 25062A   26200.56486778 -.00000137  00000+0  00000+0 0  9995
2 63361   4.2927 273.9726 0031402   9.2956 297.4630  1.00272673  4926
TJS-16                  
1 63397U 25064A   26199.72539708 -.00000112  00000+0  00000+0 0  9996
2 63397   1.1777  81.2665 0002454 294.7569 342.2525  1.00271244  4703
TJS-17                  
1 63524U 25073A   26199.82514919 -.00000077  00000+0  00000+0 0  9996
2 63524   1.1440  82.4266 0001008 314.2292   1.5118  1.00271316  4609
TIANLIAN 2-05           
1 63662U 25084A   26200.33924906  .00000121  00000+0  00000+0 0  9990
2 63662   4.3707 279.4685 0002703 157.7854   2.3692  1.00273158  4706
TJS-19                  
1 63924U 25097A   26199.82118086 -.00000281  00000+0  00000+0 0  9998
2 63924   3.2341 317.9697 0004110 251.3720 164.1101  1.00274857  4469
CHINASAT 3B             
1 64062U 25106A   26200.15447947 -.00000050  00000+0  00000+0 0  9997
2 64062   0.0330 186.5072 0004139 319.2493  14.1137  1.00272149  4381
SXM-10                  
1 64290U 25122A   26200.28908264 -.00000022  00000+0  00000+0 0  9995
2 64290   0.0183  46.1891 0001818 317.2661 281.5229  1.00271575  4009
COSMOS 2589             
1 64467U 25131A   26199.81911373 -.00000297  00000+0  00000+0 0  9996
2 64467   0.0238 120.2702 0001222  64.5231 144.7079  1.00268636  3876
CHINASAT 9C             
1 64470U 25132A   26200.65055462 -.00000251  00000+0  00000+0 0  9994
2 64470   0.0141  95.7953 0003476  19.6547 148.3776  1.00273323  4471
MTG-S1                  
1 64723U 25143A   26200.33508905 -.00000012  00000+0  00000+0 0  9992
2 64723   0.5820 346.0969 0003285 258.8002 172.4915  1.00274833  3740
DROR 1                  
1 64784U 25148A   26200.19184706 -.00000039  00000+0  00000+0 0  9996
2 64784   0.0394 241.9936 0002007 159.5162 320.5475  1.00272926  3614
SHIYAN-29               
1 65486U 25196A   26198.96433682 -.00000287  00000+0  00000+0 0  9995
2 65486  28.8546  18.1469 0013154 177.5801 182.5349  1.00275892  3184
NUSANTARA LIMA (NUSANT*)
1 65588U 25205A   26200.07238416 -.00000363  00000+0  00000+0 0  9998
2 65588   0.0115  91.7060 0000414  86.3457 257.7190  1.00273575  3033
TJS-20                  
1 66142U 25238A   26200.63454219  .00000024  00000+0  00000+0 0  9997
2 66142   5.3973 299.4271 0003848 187.4036 101.4647  1.00268253  2657
CMS-03 (GSAT-7R)        
1 66311U 25249B   26200.56374110  .00000000  00000+0  00000+0 0  9994
2 66311   0.0163  59.5161 0002476  57.8364  96.9425  1.00269959  2679
VIASAT-3 F2             
1 66454U 25261A   26200.23287281 -.00000239  00000+0  00000+0 0  9997
2 66454   0.0022 117.1237 0000566  93.1603  91.6055  1.00272017  3113
SHIJIAN-28 (SJ-28)      
1 66549U 25277A   26200.57214780 -.00000362  00000+0  00000+0 0  9997
2 66549   4.4556 271.6162 0001200  55.5170 293.0161  1.00274875  2476
TJS-22                  
1 66990U 25290A   26193.80754925 -.00000005  00000+0  00000+0 0  9993
2 66990   1.4677 286.9097 0002691 318.9700  42.0235  1.00269739  2289
TJS-23                  
1 67226U 25306A   26200.51284445  .00000015  00000+0  00000+0 0  9996
2 67226   5.5160 297.3167 0004405 199.9656 160.1885  1.00268343  2216
FENGYUN 4C              
1 67246U 25312A   26194.65865777 -.00000328  00000+0  00000+0 0  9993
2 67246   0.0385 175.3203 0000658  48.7481  77.5697  1.00269440  2048
SHIJIAN-29A (SJ-29A)    
1 67302U 25315A   26200.62685200 -.00000073  00000+0  00000+0 0  9992
2 67302   3.4786  94.3301 0004998  50.6535  91.2723  1.00273139  1946
SHIJIAN-29B (SJ-29B)    
1 67403U 25315C   26200.59727576 -.00000074  00000+0  00000+0 0  9994
2 67403   3.4774  94.3238 0005195  54.0615  77.2457  1.00273409  2018
ELEKTRO-L 5             
1 67756U 26028A   26199.96427910 -.00000104  00000+0  00000+0 0  9998
2 67756   0.2028 326.9083 0002076 176.1187 216.9691  1.00271836  1566
JAM-E JAM 1             
1 67757U 26028B   26200.19938709  .00000150  00000+0  00000+0 0  9990
2 67757   0.1991 314.9524 0000687 261.0918 186.7302  1.00266238  1444
ECHOSTAR 25             
1 68126U 26045A   26200.47614116 -.00000061  00000+0  00000+0 0  9996
2 68126   0.0204  55.9013 0001753  54.0192 248.7418  1.00271490  1314
TJS-24                  
1 69235U 26116A   26200.59946919 -.00000236  00000+0  00000+0 0  9993
2 69235   0.0883  94.2488 0000327 147.1130   2.1248  1.00273760   553
